KUIPER-00027            
1 63740U 25088S   25294.53453600  .00004015  00000+0  56078-3 0  9999
2 63740  51.9027 350.7663 0005136  63.9356 296.2135 14.79515797 27016
KUIPER-00028            
1 63741U 25088T   25294.54825803  .00003511  00000+0  49639-3 0  9994
2 63741  51.9012 348.6507 0004700  86.2339 273.9161 14.79320747 27457
KUIPER-00029            
1 63742U 25088U   25294.59461407 -.00006086  00000+0 -76899-3 0  9996
2 63742  51.9031 346.4206 0008869  33.6298 326.5225 14.79945208 27014
KUIPER-00030            
1 63743U 25088V   25294.60020964 -.00002914  00000+0 -35226-3 0  9993
2 63743  51.9010   5.5897 0014161 336.0572  23.9731 14.79942597 27038
KUIPER-00031            
1 63744U 25088W   25294.54720841  .00000669  00000+0  11686-3 0  9995
2 63744  51.9009 351.8973 0004443  14.1136 345.9950 14.79955924 26937
KUIPER-00032            
1 63745U 25088X   25294.53505215  .00019903  00000+0  65452-3 0  9992
2 63745  51.8722 333.9489 0005613 357.2351   2.8601 15.31509890 28189
KUIPER-00033            
1 63746U 25088Y   25294.51482526  .00007764  00000+0  10459-2 0  9998
2 63746  51.9008  22.0221 0004243  82.8564 277.2880 14.79947097 26993
KUIPER-00034            
1 63747U 25088Z   25294.39912218  .00006380  00000+0  86434-3 0  9991
2 63747  51.9022 344.8297 0002289   9.1677 350.9327 14.79970910 27180
